CCSDS_OEM_VERS = 1.0
CREATION_DATE  = 2017-05-11T10:58:09
ORIGINATOR     = GMAT USER

META_START
OBJECT_NAME          = MOPSSat_alt_35785_km_RAAN_0_036
OBJECT_ID            = SatId
CENTER_NAME          = Earth
REF_FRAME            = EME2000
TIME_SYSTEM          = UTC
START_TIME           = 2017-01-01T00:00:00.000
USEABLE_START_TIME   = 2017-01-01T00:00:00.000
USEABLE_STOP_TIME    = 2017-01-02T00:00:00.000
STOP_TIME            = 2017-01-02T00:00:00.000
INTERPOLATION        = Lagrange
INTERPOLATION_DEGREE = 7 
META_STOP


                                                                                   

2017-01-01T20:10:00.000   2.317515552433200e+04  -3.521841632343113e+04  -6.149442880529374e+02   2.568580242687573e+00   1.689813622857064e+00   2.937697795790275e-02
2017-01-01T20:10:10.000   2.320083516232134e+04  -3.520150882514526e+04  -6.146503550032661e+02   2.567347227730453e+00   1.691685950580076e+00   2.940963051977914e-02
2017-01-01T20:10:20.000   2.322650246335932e+04  -3.518458260806193e+04  -6.143560955058821e+02   2.566112847440684e+00   1.693557378781157e+00   2.944226743834298e-02
2017-01-01T20:10:30.000   2.325215741399795e+04  -3.516763768104768e+04  -6.140615097149821e+02   2.564877102464810e+00   1.695427906479669e+00   2.947488869651633e-02
2017-01-01T20:10:40.000   2.327780000086092e+04  -3.515067405293589e+04  -6.137665977841860e+02   2.563639993446952e+00   1.697297532700198e+00   2.950749427731243e-02
2017-01-01T20:10:50.000   2.330343021004399e+04  -3.513369173292323e+04  -6.134713598734295e+02   2.562401521057727e+00   1.699166256428841e+00   2.954008416307317e-02
2017-01-01T20:11:00.000   2.332904802771475e+04  -3.511669073017324e+04  -6.131757961420734e+02   2.561161685965335e+00   1.701034076656931e+00   2.957265833623185e-02
2017-01-01T20:11:10.000   2.335465343995769e+04  -3.509967105391852e+04  -6.128799067506791e+02   2.559920488843017e+00   1.702900992369740e+00   2.960521677911601e-02
2017-01-01T20:11:20.000   2.338024643318445e+04  -3.508263271319107e+04  -6.125836918563210e+02   2.558677930349379e+00   1.704767002576395e+00   2.963775947446919e-02
2017-01-01T20:11:30.000   2.340582699379507e+04  -3.506557571704443e+04  -6.122871516164478e+02   2.557434011144601e+00   1.706632106285179e+00   2.967028640502019e-02
2017-01-01T20:11:40.000   2.343139510825617e+04  -3.504850007450258e+04  -6.119902861879945e+02   2.556188731886709e+00   1.708496302509224e+00   2.970279755358236e-02
2017-01-01T20:11:50.000   2.345695076306987e+04  -3.503140579457853e+04  -6.116930957277071e+02   2.554942093232929e+00   1.710359590264257e+00   2.973529290301426e-02
2017-01-01T20:12:00.000   2.348249394476028e+04  -3.501429288628515e+04  -6.113955803923276e+02   2.553694095840475e+00   1.712221968567601e+00   2.976777243620241e-02
2017-01-01T20:12:10.000   2.350802463984291e+04  -3.499716135865545e+04  -6.110977403389498e+02   2.552444740368033e+00   1.714083436435959e+00   2.980023613602236e-02
2017-01-01T20:12:20.000   2.353354283480962e+04  -3.498001122075119e+04  -6.107995757251665e+02   2.551194027476384e+00   1.715943992884305e+00   2.983268398531955e-02
2017-01-01T20:12:30.000   2.355904851609954e+04  -3.496284248168432e+04  -6.105010867094445e+02   2.549941957829970e+00   1.717803636923769e+00   2.986511596687234e-02
2017-01-01T20:12:40.000   2.358454167017610e+04  -3.494565515056429e+04  -6.102022734502062e+02   2.548688532093053e+00   1.719662367567255e+00   2.989753206349004e-02
2017-01-01T20:12:50.000   2.361002228319244e+04  -3.492844923672634e+04  -6.099031361098013e+02   2.547433750946363e+00   1.721520183805041e+00   2.992993225758738e-02
2017-01-01T20:13:00.000   2.363549034139724e+04  -3.491122474945532e+04  -6.096036748497021e+02   2.546177615066945e+00   1.723377084634372e+00   2.996231653170047e-02
2017-01-01T20:13:10.000   2.366094583098364e+04  -3.489398169808804e+04  -6.093038898322864e+02   2.544920125135650e+00   1.725233069048444e+00   2.999468486829492e-02
2017-01-01T20:13:20.000   2.368638873867494e+04  -3.487672009161705e+04  -6.090037812139454e+02   2.543661281808211e+00   1.727088136079106e+00   3.002703725051035e-02
2017-01-01T20:13:30.000   2.371181905114033e+04  -3.485943993908572e+04  -6.087033491519553e+02   2.542401085744073e+00   1.728942284754262e+00   3.005937366141761e-02
2017-01-01T20:13:40.000   2.373723675512745e+04  -3.484214124949915e+04  -6.084025938029259e+02   2.541139537599888e+00   1.730795514107539e+00   3.009169408418729e-02
2017-01-01T20:13:50.000   2.376264183713158e+04  -3.482482403204547e+04  -6.081015153266515e+02   2.539876638045661e+00   1.732647823154156e+00   3.012399850166900e-02
2017-01-01T20:14:00.000   2.378803428364167e+04  -3.480748829593237e+04  -6.078001138832640e+02   2.538612387752816e+00   1.734499210908883e+00   3.015628689670445e-02
2017-01-01T20:14:10.000   2.381341408113984e+04  -3.479013405038585e+04  -6.074983896332162e+02   2.537346787394119e+00   1.736349676385979e+00   3.018855925212649e-02
2017-01-01T20:14:20.000   2.383878121585885e+04  -3.477276130481962e+04  -6.071963427402241e+02   2.536079837656026e+00   1.738199218581534e+00   3.022081555045098e-02
2017-01-01T20:14:30.000   2.386413567410939e+04  -3.475537006860804e+04  -6.068939733673197e+02   2.534811539222121e+00   1.740047836497308e+00   3.025305577429274e-02
2017-01-01T20:14:40.000   2.388947744215083e+04  -3.473796035117524e+04  -6.065912816784006e+02   2.533541892779617e+00   1.741895529131330e+00   3.028527990620145e-02
2017-01-01T20:14:50.000   2.391480650676334e+04  -3.472053216160235e+04  -6.062882678314010e+02   2.532270898990714e+00   1.743742295519592e+00   3.031748792938891e-02
2017-01-01T20:15:00.000   2.394012285467570e+04  -3.470308550902001e+04  -6.059849319851171e+02   2.530998558521230e+00   1.745588134694346e+00   3.034967982700163e-02
2017-01-01T20:15:10.000   2.396542647269499e+04  -3.468562040252011e+04  -6.056812742976700e+02   2.529724872034145e+00   1.747433045693547e+00   3.038185558228563e-02
2017-01-01T20:15:20.000   2.399071734737701e+04  -3.466813685137923e+04  -6.053772949303943e+02   2.528449840205921e+00   1.749277027536837e+00   3.041401517816745e-02
2017-01-01T20:15:30.000   2.401599546527149e+04  -3.465063486489349e+04  -6.050729940449626e+02   2.527173463714435e+00   1.751120079243407e+00   3.044615859756580e-02
2017-01-01T20:15:40.000   2.404126081292137e+04  -3.463311445237743e+04  -6.047683718033690e+02   2.525895743238914e+00   1.752962199831955e+00   3.047828582339081e-02
2017-01-01T20:15:50.000   2.406651337662150e+04  -3.461557562333492e+04  -6.044634283708997e+02   2.524616679472390e+00   1.754803388303096e+00   3.051039683823712e-02
2017-01-01T20:16:00.000   2.409175314274436e+04  -3.459801838722997e+04  -6.041581639121482e+02   2.523336273104991e+00   1.756643643663098e+00   3.054249162479801e-02
2017-01-01T20:16:10.000   2.411698009760906e+04  -3.458044275357836e+04  -6.038525785926083e+02   2.522054524830619e+00   1.758482964914341e+00   3.057457016569897e-02
2017-01-01T20:16:20.000   2.414219422806024e+04  -3.456284873154454e+04  -6.035466725716655e+02   2.520771435317556e+00   1.760321351097524e+00   3.060663244423368e-02
2017-01-01T20:16:30.000   2.416739552088764e+04  -3.454523633034556e+04  -6.032404460096202e+02   2.519487005237917e+00   1.762158801249339e+00   3.063867844362604e-02
2017-01-01T20:16:40.000   2.419258396297609e+04  -3.452760555914701e+04  -6.029338990658781e+02   2.518201235260070e+00   1.763995314413412e+00   3.067070814722075e-02
2017-01-01T20:16:50.000   2.421775954090180e+04  -3.450995642734248e+04  -6.026270319038099e+02   2.516914126069009e+00   1.765830889610870e+00   3.070272153797019e-02
2017-01-01T20:17:00.000   2.424292224126579e+04  -3.449228894432323e+04  -6.023198446867461e+02   2.515625678349557e+00   1.767665525864645e+00   3.073471859885814e-02
2017-01-01T20:17:10.000   2.426807205061931e+04  -3.447460311952952e+04  -6.020123375788683e+02   2.514335892790110e+00   1.769499222194045e+00   3.076669931280519e-02
2017-01-01T20:17:20.000   2.429320895548509e+04  -3.445689896243790e+04  -6.017045107449902e+02   2.513044770081713e+00   1.771331977616294e+00   3.079866366269557e-02
2017-01-01T20:17:30.000   2.431833294238146e+04  -3.443917648254235e+04  -6.013963643502295e+02   2.511752310916686e+00   1.773163791148297e+00   3.083061163140795e-02
2017-01-01T20:17:40.000   2.434344399783160e+04  -3.442143568934823e+04  -6.010878985599006e+02   2.510458515988168e+00   1.774994661807313e+00   3.086254320182713e-02
2017-01-01T20:17:50.000   2.436854210845375e+04  -3.440367659230916e+04  -6.007791135384203e+02   2.509163385985541e+00   1.776824588617532e+00   3.089445835695877e-02
2017-01-01T20:18:00.000   2.439362726090083e+04  -3.438589920086884e+04  -6.004700094500319e+02   2.507866921597451e+00   1.778653570605672e+00   3.092635707985262e-02
2017-01-01T20:18:10.000   2.441869944186052e+04  -3.436810352446102e+04  -6.001605864588058e+02   2.506569123511825e+00   1.780481606800987e+00   3.095823935360260e-02
2017-01-01T20:18:20.000   2.444375863811465e+04  -3.435028957246643e+04  -5.998508447278924e+02   2.505269992412723e+00   1.782308696239590e+00   3.099010516142235e-02
2017-01-01T20:18:30.000   2.446880483644975e+04  -3.433245735427695e+04  -5.995407844206335e+02   2.503969528985015e+00   1.784134837957945e+00   3.102195448653149e-02
2017-01-01T20:18:40.000   2.449383802364827e+04  -3.431460687930212e+04  -5.992304057006813e+02   2.502667733914866e+00   1.785960030992213e+00   3.105378731214442e-02
2017-01-01T20:18:50.000   2.451885818646280e+04  -3.429673815698587e+04  -5.989197087322841e+02   2.501364607890944e+00   1.787784274376378e+00   3.108560362143753e-02
2017-01-01T20:19:00.000   2.454386531159701e+04  -3.427885119682205e+04  -5.986086936805591e+02   2.500060151605560e+00   1.789607567140860e+00   3.111740339752506e-02
